STARLINK-2022           
1 47643U 21012Z   23328.91407568  .00000316  00000+0  40113-4 0  9990
2 47643  53.0534 203.5622 0001216 103.1835 256.9290 15.06396826154297
